0 DELTA 1 DEB
1 37660U 78026JX  13283.80075768  .00000575  00000-0  26323-3 0  1227
2 37660 098.4311 275.6779 0021203 174.2635 185.7966 14.24968850486141
0 DELTA 1 DEB
1 37660U 78026JX  13293.20984052  .00000832  00000-0  37255-3 0  1230
2 37660 098.4352 284.7178 0020305 141.3099 219.0455 14.24986532487480
